QIANFAN-33              
1 61566U 24185Q   25324.76451127  .00000513  00000+0  36129-3 0  9995
2 61566  88.9795  81.2531 0008017  48.0326 312.1532 13.96527294 66097
QIANFAN-34              
1 61567U 24185R   25324.74864678  .00000553  00000+0  35222-3 0  9990
2 61567  88.9770  80.8480 0007215  57.1969 302.9905 14.02277640 66278
QIANFAN-35              
1 61568U 24185S   25324.76370617  .00000914  00000+0  36341-3 0  9992
2 61568  88.9798  79.4543 0006591  16.9722 343.1691 14.27913035 67046
QIANFAN-36              
1 61569U 24185T   25324.74534869  .00000216  00000+0  29406-3 0  9991
2 61569  88.9777  83.3315 0007758 105.7722 254.4288 13.55577624 64940
QIANFAN-37              
1 62238U 24232B   25324.69910917  .00000202  00000+0  29490-3 0  9992
2 62238  89.0039  43.5509 0002393 121.2151 238.9235 13.50984962 96192
QIANFAN-38              
1 62239U 24232C   25324.72374069  .00000180  00000+0  25995-3 0  9990
2 62239  89.0046  43.4627 0012908 254.8806 105.0917 13.50974157 96257
QIANFAN-39              
1 62240U 24232D   25324.73124876  .00000676  00000+0  28035-3 0  9990
2 62240  89.0037  39.8232 0017734 145.4121 214.8229 14.25360008 98251
QIANFAN-40              
1 62241U 24232E   25324.75665292  .00000185  00000+0  26876-3 0  9991
2 62241  89.0073  43.0378 0011801 263.5854  96.3953 13.50973862 96625
