<?xml version="1.0" encoding="UTF-8"?>
<ndm xmlns:xsi="http://www.w3.org/2001/XMLSchema-instance" xsi:noNamespaceSchemaLocation="https://sanaregistry.org/r/ndmxml_unqualified/ndmxml-2.0.0-master-2.0.xsd">
<omm id="CCSDS_OMM_VERS" version="2.0">
<header><CREATION_DATE/><ORIGINATOR/></header><body><segment><metadata><OBJECT_NAME>QIANFAN-33</OBJECT_NAME><OBJECT_ID>2024-185Q</OBJECT_ID><CENTER_NAME>EARTH</CENTER_NAME><REF_FRAME>TEME</REF_FRAME><TIME_SYSTEM>UTC</TIME_SYSTEM><MEAN_ELEMENT_THEORY>SGP4</MEAN_ELEMENT_THEORY></metadata><data><meanElements><EPOCH>2025-11-20T18:20:53.773728</EPOCH><MEAN_MOTION>13.96527294</MEAN_MOTION><ECCENTRICITY>.0008017</ECCENTRICITY><INCLINATION>88.9795</INCLINATION><RA_OF_ASC_NODE>81.2531</RA_OF_ASC_NODE><ARG_OF_PERICENTER>48.0326</ARG_OF_PERICENTER><MEAN_ANOMALY>312.1532</MEAN_ANOMALY></meanElements><tleParameters><EPHEMERIS_TYPE>0</EPHEMERIS_TYPE><CLASSIFICATION_TYPE>U</CLASSIFICATION_TYPE><NORAD_CAT_ID>61566</NORAD_CAT_ID><ELEMENT_SET_NO>999</ELEMENT_SET_NO><REV_AT_EPOCH>6609</REV_AT_EPOCH><BSTAR>.36129E-3</BSTAR><MEAN_MOTION_DOT>.513E-5</MEAN_MOTION_DOT><MEAN_MOTION_DDOT>0</MEAN_MOTION_DDOT></tleParameters></data></segment></body></omm>
<omm id="CCSDS_OMM_VERS" version="2.0">
<header><CREATION_DATE/><ORIGINATOR/></header><body><segment><metadata><OBJECT_NAME>QIANFAN-34</OBJECT_NAME><OBJECT_ID>2024-185R</OBJECT_ID><CENTER_NAME>EARTH</CENTER_NAME><REF_FRAME>TEME</REF_FRAME><TIME_SYSTEM>UTC</TIME_SYSTEM><MEAN_ELEMENT_THEORY>SGP4</MEAN_ELEMENT_THEORY></metadata><data><meanElements><EPOCH>2025-11-20T17:58:03.081792</EPOCH><MEAN_MOTION>14.02277640</MEAN_MOTION><ECCENTRICITY>.0007215</ECCENTRICITY><INCLINATION>88.9770</INCLINATION><RA_OF_ASC_NODE>80.8480</RA_OF_ASC_NODE><ARG_OF_PERICENTER>57.1969</ARG_OF_PERICENTER><MEAN_ANOMALY>302.9905</MEAN_ANOMALY></meanElements><tleParameters><EPHEMERIS_TYPE>0</EPHEMERIS_TYPE><CLASSIFICATION_TYPE>U</CLASSIFICATION_TYPE><NORAD_CAT_ID>61567</NORAD_CAT_ID><ELEMENT_SET_NO>999</ELEMENT_SET_NO><REV_AT_EPOCH>6627</REV_AT_EPOCH><BSTAR>.35222E-3</BSTAR><MEAN_MOTION_DOT>.553E-5</MEAN_MOTION_DOT><MEAN_MOTION_DDOT>0</MEAN_MOTION_DDOT></tleParameters></data></segment></body></omm>
<omm id="CCSDS_OMM_VERS" version="2.0">
<header><CREATION_DATE/><ORIGINATOR/></header><body><segment><metadata><OBJECT_NAME>QIANFAN-35</OBJECT_NAME><OBJECT_ID>2024-185S</OBJECT_ID><CENTER_NAME>EARTH</CENTER_NAME><REF_FRAME>TEME</REF_FRAME><TIME_SYSTEM>UTC</TIME_SYSTEM><MEAN_ELEMENT_THEORY>SGP4</MEAN_ELEMENT_THEORY></metadata><data><meanElements><EPOCH>2025-11-20T18:19:44.213088</EPOCH><MEAN_MOTION>14.27913035</MEAN_MOTION><ECCENTRICITY>.0006591</ECCENTRICITY><INCLINATION>88.9798</INCLINATION><RA_OF_ASC_NODE>79.4543</RA_OF_ASC_NODE><ARG_OF_PERICENTER>16.9722</ARG_OF_PERICENTER><MEAN_ANOMALY>343.1691</MEAN_ANOMALY></meanElements><tleParameters><EPHEMERIS_TYPE>0</EPHEMERIS_TYPE><CLASSIFICATION_TYPE>U</CLASSIFICATION_TYPE><NORAD_CAT_ID>61568</NORAD_CAT_ID><ELEMENT_SET_NO>999</ELEMENT_SET_NO><REV_AT_EPOCH>6704</REV_AT_EPOCH><BSTAR>.36341E-3</BSTAR><MEAN_MOTION_DOT>.914E-5</MEAN_MOTION_DOT><MEAN_MOTION_DDOT>0</MEAN_MOTION_DDOT></tleParameters></data></segment></body></omm>
<omm id="CCSDS_OMM_VERS" version="2.0">
<header><CREATION_DATE/><ORIGINATOR/></header><body><segment><metadata><OBJECT_NAME>QIANFAN-36</OBJECT_NAME><OBJECT_ID>2024-185T</OBJECT_ID><CENTER_NAME>EARTH</CENTER_NAME><REF_FRAME>TEME</REF_FRAME><TIME_SYSTEM>UTC</TIME_SYSTEM><MEAN_ELEMENT_THEORY>SGP4</MEAN_ELEMENT_THEORY></metadata><data><meanElements><EPOCH>2025-11-20T17:53:18.126816</EPOCH><MEAN_MOTION>13.55577624</MEAN_MOTION><ECCENTRICITY>.0007758</ECCENTRICITY><INCLINATION>88.9777</INCLINATION><RA_OF_ASC_NODE>83.3315</RA_OF_ASC_NODE><ARG_OF_PERICENTER>105.7722</ARG_OF_PERICENTER><MEAN_ANOMALY>254.4288</MEAN_ANOMALY></meanElements><tleParameters><EPHEMERIS_TYPE>0</EPHEMERIS_TYPE><CLASSIFICATION_TYPE>U</CLASSIFICATION_TYPE><NORAD_CAT_ID>61569</NORAD_CAT_ID><ELEMENT_SET_NO>999</ELEMENT_SET_NO><REV_AT_EPOCH>6494</REV_AT_EPOCH><BSTAR>.29406E-3</BSTAR><MEAN_MOTION_DOT>.216E-5</MEAN_MOTION_DOT><MEAN_MOTION_DDOT>0</MEAN_MOTION_DDOT></tleParameters></data></segment></body></omm>
<omm id="CCSDS_OMM_VERS" version="2.0">
<header><CREATION_DATE/><ORIGINATOR/></header><body><segment><metadata><OBJECT_NAME>QIANFAN-37</OBJECT_NAME><OBJECT_ID>2024-232B</OBJECT_ID><CENTER_NAME>EARTH</CENTER_NAME><REF_FRAME>TEME</REF_FRAME><TIME_SYSTEM>UTC</TIME_SYSTEM><MEAN_ELEMENT_THEORY>SGP4</MEAN_ELEMENT_THEORY></metadata><data><meanElements><EPOCH>2025-11-20T16:46:43.032288</EPOCH><MEAN_MOTION>13.50984962</MEAN_MOTION><ECCENTRICITY>.0002393</ECCENTRICITY><INCLINATION>89.0039</INCLINATION><RA_OF_ASC_NODE>43.5509</RA_OF_ASC_NODE><ARG_OF_PERICENTER>121.2151</ARG_OF_PERICENTER><MEAN_ANOMALY>238.9235</MEAN_ANOMALY></meanElements><tleParameters><EPHEMERIS_TYPE>0</EPHEMERIS_TYPE><CLASSIFICATION_TYPE>U</CLASSIFICATION_TYPE><NORAD_CAT_ID>62238</NORAD_CAT_ID><ELEMENT_SET_NO>999</ELEMENT_SET_NO><REV_AT_EPOCH>9619</REV_AT_EPOCH><BSTAR>.2949E-3</BSTAR><MEAN_MOTION_DOT>.202E-5</MEAN_MOTION_DOT><MEAN_MOTION_DDOT>0</MEAN_MOTION_DDOT></tleParameters></data></segment></body></omm>
<omm id="CCSDS_OMM_VERS" version="2.0">
<header><CREATION_DATE/><ORIGINATOR/></header><body><segment><metadata><OBJECT_NAME>QIANFAN-38</OBJECT_NAME><OBJECT_ID>2024-232C</OBJECT_ID><CENTER_NAME>EARTH</CENTER_NAME><REF_FRAME>TEME</REF_FRAME><TIME_SYSTEM>UTC</TIME_SYSTEM><MEAN_ELEMENT_THEORY>SGP4</MEAN_ELEMENT_THEORY></metadata><data><meanElements><EPOCH>2025-11-20T17:22:11.195616</EPOCH><MEAN_MOTION>13.50974157</MEAN_MOTION><ECCENTRICITY>.0012908</ECCENTRICITY><INCLINATION>89.0046</INCLINATION><RA_OF_ASC_NODE>43.4627</RA_OF_ASC_NODE><ARG_OF_PERICENTER>254.8806</ARG_OF_PERICENTER><MEAN_ANOMALY>105.0917</MEAN_ANOMALY></meanElements><tleParameters><EPHEMERIS_TYPE>0</EPHEMERIS_TYPE><CLASSIFICATION_TYPE>U</CLASSIFICATION_TYPE><NORAD_CAT_ID>62239</NORAD_CAT_ID><ELEMENT_SET_NO>999</ELEMENT_SET_NO><REV_AT_EPOCH>9625</REV_AT_EPOCH><BSTAR>.25995E-3</BSTAR><MEAN_MOTION_DOT>.18E-5</MEAN_MOTION_DOT><MEAN_MOTION_DDOT>0</MEAN_MOTION_DDOT></tleParameters></data></segment></body></omm>
<omm id="CCSDS_OMM_VERS" version="2.0">
<header><CREATION_DATE/><ORIGINATOR/></header><body><segment><metadata><OBJECT_NAME>QIANFAN-39</OBJECT_NAME><OBJECT_ID>2024-232D</OBJECT_ID><CENTER_NAME>EARTH</CENTER_NAME><REF_FRAME>TEME</REF_FRAME><TIME_SYSTEM>UTC</TIME_SYSTEM><MEAN_ELEMENT_THEORY>SGP4</MEAN_ELEMENT_THEORY></metadata><data><meanElements><EPOCH>2025-11-20T17:32:59.892864</EPOCH><MEAN_MOTION>14.25360008</MEAN_MOTION><ECCENTRICITY>.0017734</ECCENTRICITY><INCLINATION>89.0037</INCLINATION><RA_OF_ASC_NODE>39.8232</RA_OF_ASC_NODE><ARG_OF_PERICENTER>145.4121</ARG_OF_PERICENTER><MEAN_ANOMALY>214.8229</MEAN_ANOMALY></meanElements><tleParameters><EPHEMERIS_TYPE>0</EPHEMERIS_TYPE><CLASSIFICATION_TYPE>U</CLASSIFICATION_TYPE><NORAD_CAT_ID>62240</NORAD_CAT_ID><ELEMENT_SET_NO>999</ELEMENT_SET_NO><REV_AT_EPOCH>9825</REV_AT_EPOCH><BSTAR>.28035E-3</BSTAR><MEAN_MOTION_DOT>.676E-5</MEAN_MOTION_DOT><MEAN_MOTION_DDOT>0</MEAN_MOTION_DDOT></tleParameters></data></segment></body></omm>
<omm id="CCSDS_OMM_VERS" version="2.0">
<header><CREATION_DATE/><ORIGINATOR/></header><body><segment><metadata><OBJECT_NAME>QIANFAN-40</OBJECT_NAME><OBJECT_ID>2024-232E</OBJECT_ID><CENTER_NAME>EARTH</CENTER_NAME><REF_FRAME>TEME</REF_FRAME><TIME_SYSTEM>UTC</TIME_SYSTEM><MEAN_ELEMENT_THEORY>SGP4</MEAN_ELEMENT_THEORY></metadata><data><meanElements><EPOCH>2025-11-20T18:09:34.812288</EPOCH><MEAN_MOTION>13.50973862</MEAN_MOTION><ECCENTRICITY>.0011801</ECCENTRICITY><INCLINATION>89.0073</INCLINATION><RA_OF_ASC_NODE>43.0378</RA_OF_ASC_NODE><ARG_OF_PERICENTER>263.5854</ARG_OF_PERICENTER><MEAN_ANOMALY>96.3953</MEAN_ANOMALY></meanElements><tleParameters><EPHEMERIS_TYPE>0</EPHEMERIS_TYPE><CLASSIFICATION_TYPE>U</CLASSIFICATION_TYPE><NORAD_CAT_ID>62241</NORAD_CAT_ID><ELEMENT_SET_NO>999</ELEMENT_SET_NO><REV_AT_EPOCH>9662</REV_AT_EPOCH><BSTAR>.26876E-3</BSTAR><MEAN_MOTION_DOT>.185E-5</MEAN_MOTION_DOT><MEAN_MOTION_DDOT>0</MEAN_MOTION_DDOT></tleParameters></data></segment></body></omm>

</ndm>
